OBJECT_NAME,OBJECT_ID,EPOCH,MEAN_MOTION,ECCENTRICITY,INCLINATION,RA_OF_ASC_NODE,ARG_OF_PERICENTER,MEAN_ANOMALY,EPHEMERIS_TYPE,CLASSIFICATION_TYPE,NORAD_CAT_ID,ELEMENT_SET_NO,REV_AT_EPOCH,BSTAR,MEAN_MOTION_DOT,MEAN_MOTION_DDOT
EYESAT A (AO-27),1993-061C,2026-06-09T10:45:15.114240,14.30940206,.0009417,98.6881,227.8641,119.8200,240.3919,0,U,22825,999,70589,.47247E-4,.8E-6,0
ITAMSAT (IO-26),1993-061D,2026-06-09T10:18:55.762848,14.31366838,.0010032,98.6830,227.7625,105.1057,255.1236,0,U,22826,999,70620,.47221E-4,.81E-6,0
RADIO ROSTO (RS15),1994-085A,2026-06-09T11:43:45.395040,11.27583629,.0155713,64.8186,315.6669,5.3005,354.9524,0,U,23439,999,29503,.14709E-3,-.37E-6,0
JAS-2 (FO-29),1996-046B,2026-06-09T11:22:34.832064,13.53273763,.0350783,98.5247,10.4028,116.3945,247.3646,0,U,24278,999,47212,.28819E-4,-.4E-7,0
FORTE,1997-047A,2026-06-09T09:20:44.318976,14.27942144,.0024516,69.9542,31.6349,286.8082,73.0351,0,U,24920,999,49757,.70085E-4,.116E-5,0
TECHSAT 1B (GO-32),1998-043D,2026-06-09T11:28:31.531008,14.24426925,.0000613,99.0065,153.0425,183.0488,177.0687,0,U,25397,999,45023,.47013E-4,.62E-6,0
ISS (ZARYA),1998-067A,2026-06-09T12:19:23.388096,15.49683556,.0006877,51.6332,338.0748,150.8507,209.2867,0,U,25544,999,57056,.13794E-3,.7341E-4,0
IMAGE,2000-017A,2026-06-08T09:09:06.780672,1.68665472,.7438912,94.2210,315.2579,288.8048,8.8428,0,U,26113,999,16135,.15647506E-1,.33E-6,0
CLUSTER II-FM7 (SAMBA),2000-041A,2026-06-10T10:42:37.438560,0.44840364,.90481912,149.9132,49.6129,266.6863,359.9829,0,U,26410,999,2028,0,.4459E-4,0
CLUSTER II-FM8 (TANGO),2000-045B,2026-06-08T10:24:22.303008,0.44405778,.9049658,150.1534,50.2668,267.1780,3.1902,0,U,26464,999,2027,0,.4389E-4,0
ODIN,2001-007A,2026-06-09T02:04:25.357440,15.73146623,.00065244,97.3859,200.5220,153.1212,207.0391,0,U,26702,999,38812,.97686192E-3,.135654E-2,0
OMNI-M1,2001-026A,2026-06-07T00:52:23.982816,3.92401508,.00145,44.8338,247.6044,52.1985,307.9833,0,U,26857,999,20517,0,-.11E-6,0
PCSAT (NO-44),2001-043C,2026-06-09T13:06:28.325952,14.31953409,.0006107,67.0511,264.0346,264.2446,95.7959,0,U,26931,999,28935,.63924E-4,.88E-6,0
PROBA-1,2001-049B,2026-06-09T12:04:41.257920,15.07464312,.0055589,97.9600,168.7675,147.6400,212.8256,0,U,26958,999,34246,.1936E-3,.2969E-4,0
SAUDISAT 1C (SO-50),2002-058C,2026-06-09T07:59:40.322976,14.83029515,.0075434,64.5504,153.2855,263.9300,95.3207,0,U,27607,999,26329,.12688E-3,.929E-5,0
CORIOLIS,2003-001A,2026-06-09T12:23:44.333376,14.19942780,.0013032,98.7125,167.5184,232.1709,127.8288,0,U,27640,999,21313,.6473E-4,.94E-6,0
CUTE-1 (CO-55),2003-031E,2026-06-09T05:45:04.286016,14.24330800,.0009004,98.6735,168.8984,201.6668,158.4131,0,U,27844,999,19054,.13415E-3,.266E-5,0
CUBESAT XI-IV (CO-57),2003-031J,2026-06-09T00:19:05.278656,14.23616414,.00085614,98.6766,168.3941,222.5153,137.5363,0,U,27848,999,19021,.11651716E-3,.222E-5,0
MOZHAETS 4 (RS22),2003-042A,2026-06-09T13:04:05.271744,14.73452877,.0010159,98.3474,344.6876,297.0248,155.9562,0,U,27939,999,21442,.8442E-4,.494E-5,0
