EYESAT A (AO-27)        
1 22825U 93061C   26160.44809160  .00000080  00000+0  47247-4 0  9990
2 22825  98.6881 227.8641 0009417 119.8200 240.3919 14.30940206705899
ITAMSAT (IO-26)         
1 22826U 93061D   26160.42981207  .00000081  00000+0  47221-4 0  9995
2 22826  98.6830 227.7625 0010032 105.1057 255.1236 14.31366838706204
RADIO ROSTO (RS15)      
1 23439U 94085A   26160.48871985 -.00000037  00000+0  14709-3 0  9996
2 23439  64.8186 315.6669 0155713   5.3005 354.9524 11.27583629295032
JAS-2 (FO-29)           
1 24278U 96046B   26160.47401426 -.00000004  00000+0  28819-4 0  9997
2 24278  98.5247  10.4028 0350783 116.3945 247.3646 13.53273763472128
FORTE                   
1 24920U 97047A   26160.38940184  .00000116  00000+0  70085-4 0  9997
2 24920  69.9542  31.6349 0024516 286.8082  73.0351 14.27942144497571
TECHSAT 1B (GO-32)      
1 25397U 98043D   26160.47814272  .00000062  00000+0  47013-4 0  9996
2 25397  99.0065 153.0425 0000613 183.0488 177.0687 14.24426925450238
ISS (ZARYA)             
1 25544U 98067A   26160.51346514  .00007341  00000+0  13794-3 0  9995
2 25544  51.6332 338.0748 0006877 150.8507 209.2867 15.49683556570568
IMAGE                   
1 26113U 00017A   26159.38132848  .00000033  00000+0  15648-1 0  9991
2 26113  94.2210 315.2579 7438912 288.8048   8.8428  1.68665472161358
CLUSTER II-FM7 (SAMBA)  
1 26410U 00041A   26161.44626665  .00004459  00000+0  00000+0 0  9993
2 26410 149.9132  49.6129 9048191 266.6863 359.9829  0.44840364 20284
CLUSTER II-FM8 (TANGO)  
1 26464U 00045B   26159.43359147  .00004389  00000+0  00000+0 0  9992
2 26464 150.1534  50.2668 9049658 267.1780   3.1902  0.44405778 20277
ODIN                    
1 26702U 01007A   26160.08640460  .00135654  00000+0  97686-3 0  9990
2 26702  97.3859 200.5220 0006524 153.1212 207.0391 15.73146623388125
OMNI-M1                 
1 26857U 01026A   26158.03638869 -.00000011  00000+0  00000+0 0  9993
2 26857  44.8338 247.6044 0014500  52.1985 307.9833  3.92401508205177
PCSAT (NO-44)           
1 26931U 01043C   26160.54616118  .00000088  00000+0  63924-4 0  9999
2 26931  67.0511 264.0346 0006107 264.2446  95.7959 14.31953409289350
PROBA-1                 
1 26958U 01049B   26160.50325530  .00002969  00000+0  19360-3 0  9999
2 26958  97.9600 168.7675 0055589 147.6400 212.8256 15.07464312342465
SAUDISAT 1C (SO-50)     
1 27607U 02058C   26160.33310559  .00000929  00000+0  12688-3 0  9998
2 27607  64.5504 153.2855 0075434 263.9300  95.3207 14.83029515263299
CORIOLIS                
1 27640U 03001A   26160.51648534  .00000094  00000+0  64730-4 0  9990
2 27640  98.7125 167.5184 0013032 232.1709 127.8288 14.19942780213139
CUTE-1 (CO-55)          
1 27844U 03031E   26160.23963294  .00000266  00000+0  13415-3 0  9995
2 27844  98.6735 168.8984 0009004 201.6668 158.4131 14.24330800190548
CUBESAT XI-IV (CO-57)   
1 27848U 03031J   26160.01325554  .00000222  00000+0  11652-3 0  9999
2 27848  98.6766 168.3941 0008561 222.5153 137.5363 14.23616414190218
MOZHAETS 4 (RS22)       
1 27939U 03042A   26160.54450546  .00000494  00000+0  84420-4 0  9995
2 27939  98.3474 344.6876 0010159 297.0248 155.9562 14.73452877214427
